{"epoch":1784762836,"count":18316,"objects":[{"id":"39360","name":"SIRIUS FM-6","type":"PAYLOAD","l1":"1 39360U 13058A   26203.44870740 -.00000012  00000-0  00000-0 0  9999","l2":"2 39360   0.0098  24.8816 0001335 153.8573 166.6213  1.00270116 46422"},{"id":"39375","name":"RADUGA 1M-3","type":"PAYLOAD","l1":"1 39375U 13062A   26203.26478671  .00000151  00000-0  00000-0 0  9990","l2":"2 39375   6.0451  71.9034 0001937 285.5597  72.8435  1.00273156 46453"},{"id":"39460","name":"SES 8","type":"PAYLOAD","l1":"1 39460U 13071A   26203.59581950 -.00000265  00000-0  00000-0 0  9993","l2":"2 39460   0.0603 260.0348 0002918 218.3096 131.4821  1.00271431 44787"},{"id":"39476","name":"INMARSAT 5-F1","type":"PAYLOAD","l1":"1 39476U 13073A   26203.12775542  .00000031  00000-0  00000-0 0  9993","l2":"2 39476   0.0159  61.3702 0000267 102.1246 245.0123  1.00269816 45926"},{"id":"39481","name":"TKSAT 1","type":"PAYLOAD","l1":"1 39481U 13075A   26203.45451410 -.00000191  00000-0  00000-0 0  9990","l2":"2 39481   0.0072 106.8052 0002796   4.3826 265.4402  1.00272840 45955"},{"id":"39487","name":"EXPRESS AM-5","type":"PAYLOAD","l1":"1 39487U 13077A   26203.28558681 -.00000277  00000-0  00000-0 0  9992","l2":"2 39487   0.0239 285.9569 0000349 195.2657  61.6510  1.00271592 46716"},{"id":"39498","name":"GSAT 14","type":"PAYLOAD","l1":"1 39498U 14001A   26203.48640758 -.00000073  00000-0  00000-0 0  9995","l2":"2 39498   0.0284  92.7230 0002076 109.7901 346.7810  1.00272054 45733"},{"id":"39500","name":"THAICOM 6","type":"PAYLOAD","l1":"1 39500U 14002A   26203.48718758 -.00000117  00000-0  00000-0 0  9995","l2":"2 39500   0.0310 134.8015 0004736 350.1134  69.2104  1.00270091 45812"},{"id":"39504","name":"TDRS 12","type":"PAYLOAD","l1":"1 39504U 14004A   26203.46361414 -.00000269  00000-0  00000-0 0  9990","l2":"2 39504   4.0124  19.6559 0004349 199.2663 207.3204  1.00270966 44631"},{"id":"39508","name":"ABS 2","type":"PAYLOAD","l1":"1 39508U 14006A   26203.48658091 -.00000082  00000-0  00000-0 0  9991","l2":"2 39508   0.0148  64.0218 0003542  40.8043  85.4856  1.00272270 45639"},{"id":"39509","name":"ATHENA-FIDUS","type":"PAYLOAD","l1":"1 39509U 14006B   26203.47912755  .00000158  00000-0  00000-0 0  9994","l2":"2 39509   0.0153 136.1817 0001532 345.7536  28.5701  1.00273656 45448"},{"id":"39522","name":"TURKSAT 4A","type":"PAYLOAD","l1":"1 39522U 14007A   26203.48008088  .00000150  00000-0  00000-0 0  9998","l2":"2 39522   0.0779 279.7554 0001126 325.3031 269.9695  1.00271233 45321"},{"id":"39612","name":"EXPRESS AT1","type":"PAYLOAD","l1":"1 39612U 14010A   26203.62755751 -.00000015  00000-0  00000-0 0  9995","l2":"2 39612   0.3468  85.3965 0004688  54.1709  93.6415  1.00311141 45179"},{"id":"39613","name":"EXPRESS AT2","type":"PAYLOAD","l1":"1 39613U 14010B   26203.48285422  .00000082  00000-0  00000-0 0  9996","l2":"2 39613   0.0142 344.4534 0000240  31.2869 154.3086  1.00270562 44854"},{"id":"39616","name":"AMAZONAS 4A","type":"PAYLOAD","l1":"1 39616U 14011A   26203.45711411 -.00000249  00000-0  00000-0 0  9995","l2":"2 39616   0.0591 169.2718 0004910 329.7684 251.7209  1.00271854 45068"},{"id":"39617","name":"ASTRA 5B","type":"PAYLOAD","l1":"1 39617U 14011B   26203.33384140  .00000140  00000-0  00000-0 0  9997","l2":"2 39617   0.0627 311.9113 0002202 176.3679 315.4243  1.00272228 45024"},{"id":"39635","name":"IRNSS 1B","type":"PAYLOAD","l1":"1 39635U 14017A   26202.69832066  .00000138  00000-0  00000-0 0  9993","l2":"2 39635  28.8684 239.8086 0021402 191.2309 174.9116  1.00267561 45145"},{"id":"39727","name":"LUCH 5V","type":"PAYLOAD","l1":"1 39727U 14023A   26203.63301753 -.00000269  00000-0  00000-0 0  9997","l2":"2 39727   5.2185  69.3754 0002321  78.5308 115.1011  1.00271699 44715"},{"id":"39728","name":"KAZSAT 3","type":"PAYLOAD","l1":"1 39728U 14023B   26203.48328757  .00000064  00000-0  00000-0 0  9996","l2":"2 39728   0.0088 358.1218 0000113 184.5481 350.0447  1.00273003 42815"},{"id":"39773","name":"EUTE 3B","type":"PAYLOAD","l1":"1 39773U 14030A   26203.32976804  .00000024  00000-0  00000-0 0  9995","l2":"2 39773   0.0622 347.6493 0004468 133.7466 300.5059  1.00275061 44416"},{"id":"40107","name":"ASIASAT 8","type":"PAYLOAD","l1":"1 40107U 14046A   26203.54489479 -.00000331  00000-0  00000-0 0  9998","l2":"2 40107   0.0612 260.9196 0000742 179.2001 161.6531  1.00286128102508"},{"id":"40141","name":"ASIASAT 6","type":"PAYLOAD","l1":"1 40141U 14052A   26203.63804422 -.00000358  00000-0  00000-0 0  9991","l2":"2 40141   0.0672 265.4440 0001103 236.5206 148.0230  1.00272392 43439"},{"id":"40146","name":"OPTUS 10","type":"PAYLOAD","l1":"1 40146U 14054A   26203.51155631 -.00000143  00000-0  00000-0 0  9998","l2":"2 40146   0.0082 291.5154 0002022 185.0989 163.8053  1.00272071 43384"},{"id":"40147","name":"MEASAT 3B","type":"PAYLOAD","l1":"1 40147U 14054B   26203.48983676 -.00000238  00000-0  00000-0 0  9998","l2":"2 40147   0.0248  21.7062 0002538  61.5104 124.8756  1.00271302 43269"},{"id":"40267","name":"HIMAWARI 8","type":"PAYLOAD","l1":"1 40267U 14060A   26203.52197340 -.00000272  00000-0  00000-0 0  9996","l2":"2 40267   0.0405 266.5202 0001351 250.3537 111.9513  1.00270870 43113"},{"id":"40269","name":"IRNSS 1C","type":"PAYLOAD","l1":"1 40269U 14061A   26201.70602686 -.00000167  00000-0  00000-0 0  9994","l2":"2 40269   6.5999  88.2929 0021939   6.0783 181.3257  1.00271443 43025"},{"id":"40271","name":"INTELSAT 30","type":"PAYLOAD","l1":"1 40271U 14062A   26203.55744205 -.00000147  00000-0  00000-0 0  9995","l2":"2 40271   0.0173  55.7632 0001612 343.7500   6.4155  1.00270595  7149"},{"id":"40272","name":"ARSAT 1","type":"PAYLOAD","l1":"1 40272U 14062B   26203.61188094 -.00000256  00000-0  00000-0 0  9992","l2":"2 40272   0.0491 275.3000 0002094 195.9859 337.5412  1.00271906 42983"},{"id":"40277","name":"EXPRESS AM-6","type":"PAYLOAD","l1":"1 40277U 14064A   26203.62478417  .00000102  00000-0  00000+0 0  9999","l2":"2 40277   0.0149  20.7466 0001540 168.6499  28.9083  1.00268369 41925"},{"id":"40332","name":"GSAT 16","type":"PAYLOAD","l1":"1 40332U 14078A   26203.48268089  .00000088  00000-0  00000-0 0  9996","l2":"2 40332   0.0127  76.7218 0007642  19.6439  72.6967  1.00272597 42462"},{"id":"40333","name":"DIRECTV 14","type":"PAYLOAD","l1":"1 40333U 14078B   26203.30948794 -.00000123  00000-0  00000-0 0  9997","l2":"2 40333   0.0120  51.8970 0000678 355.3666 264.9677  1.00274896 42399"},{"id":"40345","name":"YAMAL 401","type":"PAYLOAD","l1":"1 40345U 14082A   26203.63215086 -.00000225  00000-0  00000-0 0  9995","l2":"2 40345   0.0311 210.8902 0000849 225.7216 181.2739  1.00272889 42274"}]}