OBJECT_NAME,OBJECT_ID,EPOCH,MEAN_MOTION,ECCENTRICITY,INCLINATION,RA_OF_ASC_NODE,ARG_OF_PERICENTER,MEAN_ANOMALY,EPHEMERIS_TYPE,CLASSIFICATION_TYPE,NORAD_CAT_ID,ELEMENT_SET_NO,REV_AT_EPOCH,BSTAR,MEAN_MOTION_DOT,MEAN_MOTION_DDOT
FM-6,2013-058A,2026-07-22T10:46:08.319360,1.00270116,.00013347,0.0098,24.8816,153.8573,166.6213,0,U,39360,999,4642,0,-.12E-6,0
RADUGA-1M 3,2013-062A,2026-07-22T06:21:17.571744,1.00273156,.00019374,6.0451,71.9034,285.5597,72.8435,0,U,39375,999,4645,0,.151E-5,0
SES-8,2013-071A,2026-07-22T14:17:58.804800,1.00271431,.00029178,0.0603,260.0348,218.3096,131.4821,0,U,39460,999,4478,0,-.265E-5,0
INMARSAT 5-F1,2013-073A,2026-07-22T03:03:58.068288,1.00269816,.00002675,0.0159,61.3702,102.1246,245.0123,0,U,39476,999,4592,0,.31E-6,0
TKSAT-1 (TUPAC KATARI),2013-075A,2026-07-22T10:54:30.018240,1.00272840,.00027962,0.0072,106.8052,4.3826,265.4402,0,U,39481,999,4595,0,-.191E-5,0
EXPRESS-AM5,2013-077A,2026-07-22T06:51:14.700384,1.00271592,.00003488,0.0239,285.9569,195.2657,61.6510,0,U,39487,999,4671,0,-.277E-5,0
GSAT-14,2014-001A,2026-07-22T11:40:25.614912,1.00272054,.00020757,0.0284,92.7230,109.7901,346.7810,0,U,39498,999,4573,0,-.73E-6,0
THAICOM 6,2014-002A,2026-07-22T11:41:33.006912,1.00270091,.00047359,0.0310,134.8015,350.1134,69.2104,0,U,39500,999,4581,0,-.117E-5,0
TDRS 12,2014-004A,2026-07-22T11:07:36.261696,1.00270966,.00043493,4.0124,19.6559,199.2663,207.3204,0,U,39504,999,4463,0,-.269E-5,0
ABS-2,2014-006A,2026-07-22T11:40:40.590624,1.00272270,.0003542,0.0148,64.0218,40.8043,85.4856,0,U,39508,999,4563,0,-.82E-6,0
ATHENA-FIDUS,2014-006B,2026-07-22T11:29:56.620320,1.00273656,.00015324,0.0153,136.1817,345.7536,28.5701,0,U,39509,999,4544,0,.158E-5,0
TURKSAT 4A,2014-007A,2026-07-22T11:31:18.988032,1.00271233,.00011256,0.0779,279.7554,325.3031,269.9695,0,U,39522,999,4532,0,.15E-5,0
EXPRESS-AT1,2014-010A,2026-07-22T15:03:40.968864,1.00311141,.00046885,0.3468,85.3965,54.1709,93.6415,0,U,39612,999,4517,0,-.15E-6,0
EXPRESS-AT2,2014-010B,2026-07-22T11:35:18.604608,1.00270562,.00002401,0.0142,344.4534,31.2869,154.3086,0,U,39613,999,4485,0,.82E-6,0
AMAZONAS 4A,2014-011A,2026-07-22T10:58:14.659104,1.00271854,.00049099,0.0591,169.2718,329.7684,251.7209,0,U,39616,999,4506,0,-.249E-5,0
ASTRA 5B,2014-011B,2026-07-22T08:00:43.896960,1.00272228,.00022024,0.0627,311.9113,176.3679,315.4243,0,U,39617,999,4502,0,.14E-5,0
IRNSS-1B,2014-017A,2026-07-21T16:45:34.905024,1.00267561,.00214021,28.8684,239.8086,191.2309,174.9116,0,U,39635,999,4514,0,.138E-5,0
LUCH-5V,2014-023A,2026-07-22T15:11:32.714592,1.00271699,.00023213,5.2185,69.3754,78.5308,115.1011,0,U,39727,999,4471,0,-.269E-5,0
KAZSAT-3,2014-023B,2026-07-22T11:35:56.046048,1.00273003,.00001132,0.0088,358.1218,184.5481,350.0447,0,U,39728,999,4281,0,.64E-6,0
EUTELSAT 3B,2014-030A,2026-07-22T07:54:51.958656,1.00275061,.00044683,0.0622,347.6493,133.7466,300.5059,0,U,39773,999,4441,0,.24E-6,0
ASIASAT 8 (AMOS-7),2014-046A,2026-07-22T13:04:38.909856,1.00286128,.00007422,0.0612,260.9196,179.2001,161.6531,0,U,40107,999,10250,0,-.331E-5,0
ASIASAT 6,2014-052A,2026-07-22T15:18:47.020608,1.00272392,.00011033,0.0672,265.4440,236.5206,148.0230,0,U,40141,999,4343,0,-.358E-5,0
OPTUS 10,2014-054A,2026-07-22T12:16:38.465184,1.00272071,.00020222,0.0082,291.5154,185.0989,163.8053,0,U,40146,999,4338,0,-.143E-5,0
MEASAT-3B,2014-054B,2026-07-22T11:45:21.896064,1.00271302,.0002538,0.0248,21.7062,61.5104,124.8756,0,U,40147,999,4326,0,-.238E-5,0
HIMAWARI-8,2014-060A,2026-07-22T12:31:38.501760,1.00270870,.00013508,0.0405,266.5202,250.3537,111.9513,0,U,40267,999,4311,0,-.272E-5,0
IRNSS-1C,2014-061A,2026-07-20T16:56:40.720704,1.00271443,.00219392,6.5999,88.2929,6.0783,181.3257,0,U,40269,999,4302,0,-.167E-5,0
INTELSAT 30 (IS-30),2014-062A,2026-07-22T13:22:42.993120,1.00270595,.00016116,0.0173,55.7632,343.7500,6.4155,0,U,40271,999,714,0,-.147E-5,0
ARSAT 1,2014-062B,2026-07-22T14:41:06.513216,1.00271906,.00020943,0.0491,275.3000,195.9859,337.5412,0,U,40272,999,4298,0,-.256E-5,0
EUTELSAT 53A,2014-064A,2026-07-22T14:59:41.352288,1.00268369,.000154,0.0149,20.7466,168.6499,28.9083,0,U,40277,999,4192,0,.102E-5,0
GSAT-16,2014-078A,2026-07-22T11:35:03.628896,1.00272597,.00076421,0.0127,76.7218,19.6439,72.6967,0,U,40332,999,4246,0,.88E-6,0
DIRECTV 14,2014-078B,2026-07-22T07:25:39.758016,1.00274896,.00006782,0.0120,51.8970,355.3666,264.9677,0,U,40333,999,4239,0,-.123E-5,0
YAMAL 401,2014-082A,2026-07-22T15:10:17.834304,1.00272889,.00008487,0.0311,210.8902,225.7216,181.2739,0,U,40345,999,4227,0,-.225E-5,0
